STARLINK-37435          
1 69265U 26117AD  26187.58336806 -.00019425  00000+0 -58093-3 0  9998
2 69265  53.1591 148.5626 0000674 108.5478 215.5950 15.33544095  5748
STARLINK-37464          
1 69266U 26117AE  26187.58336806 -.00005453  00000+0 -14558-3 0  9993
2 69266  53.1605 148.3037 0001402  76.6678  15.6669 15.35389664  6081
STARLINK-37501          
1 69296U 26119A   26187.04857535  .00019722  00000+0  61257-3 0  9996
2 69296  97.2842 212.8202 0001370  85.1996 274.9403 15.33395591  6944
STARLINK-37496          
1 69297U 26119B   26187.58336806  .00019619  00000+0  60857-3 0  9999
2 69297  97.2855 213.4927 0001150 122.5689 292.8519 15.33438935  6027
STARLINK-37519          
1 69298U 26119C   26187.04313677  .00009789  00000+0  30568-3 0  9995
2 69298  97.2848 212.8279 0000719  76.7045 283.4278 15.33389987  6940
STARLINK-37455          
1 69299U 26119D   26187.58336806  .00019767  00000+0  61309-3 0  9998
2 69299  97.2854 213.3527 0001457  98.9053 346.5118 15.33440229  6036
STARLINK-37456          
1 69300U 26119E   26187.04041920  .00019293  00000+0  59936-3 0  9999
2 69300  97.2846 212.8316 0001217  87.4869 272.6513 15.33393816  6949
STARLINK-37630          
1 69301U 26119F   26187.58336806 -.00237742  00000+0 -67651-2 0  9994
2 69301  97.2854 213.3633 0001457  92.0126  28.1063 15.37075390  6033
STARLINK-37804          
1 69302U 26119G   26187.49177097  .00035769  00000+0  11063-2 0  9999
2 69302  97.2852 213.2862 0001835 121.2691 238.8732 15.33407709  7018
STARLINK-37730          
1 69303U 26119H   26187.48902904  .00025585  00000+0  78973-3 0  9991
2 69303  97.2853 213.2924 0000726  47.3875 312.7429 15.33542327  7010
STARLINK-37731          
1 69304U 26119J   26187.58336806 -.02997592  00000+0 -98382-1 0  9999
2 69304  97.2856 213.3884 0001751  81.3961  93.0030 15.35617528  6039
STARLINK-37734          
1 69305U 26119K   26187.02682279  .00020150  00000+0  62572-3 0  9994
2 69305  97.2847 212.8489 0001997 107.3220 252.8242 15.33397770  6946
STARLINK-37701          
1 69306U 26119L   26187.02410292  .00020474  00000+0  63561-3 0  9997
2 69306  97.2844 212.8530 0001873 104.8791 255.2659 15.33403544  6945
STARLINK-37732          
1 69307U 26119M   26187.02138296  .00020162  00000+0  62603-3 0  9999
2 69307  97.2844 212.8576 0001336 110.1459 249.9928 15.33401757  6944
STARLINK-37689          
1 69308U 26119N   26187.58336806  .00025451  00000+0  70475-3 0  9990
2 69308  97.2855 213.4073 0001536  97.0300 119.7056 15.36962762  6033
STARLINK-37619          
1 69309U 26119P   26187.08120344  .00020957  00000+0  65054-3 0  9997
2 69309  97.2840 212.9282 0001278  88.5015 271.6374 15.33402804  6950
STARLINK-37794          
1 69310U 26119Q   26187.01322597  .00022266  00000+0  69084-3 0  9998
2 69310  97.2851 212.8680 0000964  96.0674 264.0678 15.33405293  6948
STARLINK-37795          
1 69311U 26119R   26187.58336806  .00029617  00000+0  81947-3 0  9998
2 69311  97.2855 213.4206 0001013  86.8457 164.2645 15.36957116  6041
STARLINK-37790          
1 69312U 26119S   26187.07304539  .00023349  00000+0  72443-3 0  9998
2 69312  97.2844 212.9391 0001681 103.7596 256.3834 15.33395842  6955
STARLINK-37676          
1 69313U 26119T   26187.07032670  .00025730  00000+0  79781-3 0  9991
2 69313  97.2844 212.9439 0001389  82.4549 277.6851 15.33396951  6952
STARLINK-37617          
1 69314U 26119U   26187.06760870  .00020483  00000+0  63592-3 0  9994
2 69314  97.2845 212.9456 0002184 100.9250 259.2238 15.33401674  6956
STARLINK-37627          
1 69315U 26119V   26187.06488589  .00000816  00000+0  27638-4 0  9999
2 69315  97.2850 212.9500 0001511 101.0618 259.0795 15.33412415  6957
STARLINK-37738          
1 69316U 26119W   26187.06216869  .00024579  00000+0  76229-3 0  9991
2 69316  97.2847 212.9541 0001126  91.4311 268.7060 15.33399286  6955
STARLINK-37799          
1 69317U 26119X   26187.05945161  .00018621  00000+0  57859-3 0  9994
2 69317  97.2842 212.9574 0001676  86.1523 273.9911 15.33395168  5703
STARLINK-37802          
1 69318U 26119Y   26187.05673318  .00026661  00000+0  82599-3 0  9999
2 69318  97.2844 212.9632 0000631 132.9567 227.1729 15.33415991  6952
STARLINK-37803          
1 69319U 26119Z   26187.31537530 -.00136535  00000+0 -38827-2 0  9992
2 69319  97.2879 213.2218 0001436 147.4614 212.6719 15.36679982  5742
STARLINK-37733          
1 69329U 26122A   26187.08225542  .00012294  00000+0  38321-3 0  9991
2 69329  97.2847 216.7213 0001185  80.5378 279.5999 15.33387263  5080
STARLINK-37772          
1 69330U 26122B   26187.07953639  .00016237  00000+0  50489-3 0  9997
2 69330  97.2845 216.7256 0001024  78.5086 281.6272 15.33401436  5089
STARLINK-37768          
1 69331U 26122C   26187.58336806  .00033622  00000+0  10395-2 0  9993
2 69331  97.2856 217.2275 0001393  89.3619 185.2549 15.33434111  6072
STARLINK-37833          
1 69332U 26122D   26187.07410076  .00013132  00000+0  40860-3 0  9995
2 69332  97.2845 216.7327 0000862 101.7564 258.3776 15.33427351  5083
