OBJECT_NAME,OBJECT_ID,EPOCH,MEAN_MOTION,ECCENTRICITY,INCLINATION,RA_OF_ASC_NODE,ARG_OF_PERICENTER,MEAN_ANOMALY,EPHEMERIS_TYPE,CLASSIFICATION_TYPE,NORAD_CAT_ID,ELEMENT_SET_NO,REV_AT_EPOCH,BSTAR,MEAN_MOTION_DOT,MEAN_MOTION_DDOT
STARLINK-37435,2026-117AD,2026-07-06T14:00:03.000384,15.33544095,.00006744,53.1591,148.5626,108.5478,215.5950,0,U,69265,999,574,-.5809284E-3,-.19425E-3,0
STARLINK-37464,2026-117AE,2026-07-06T14:00:03.000384,15.35389664,.00014023,53.1605,148.3037,76.6678,15.6669,0,U,69266,999,608,-.14557687E-3,-.5453E-4,0
STARLINK-37501,2026-119A,2026-07-06T01:09:56.910240,15.33395591,.000137,97.2842,212.8202,85.1996,274.9403,0,U,69296,999,694,.61257E-3,.19722E-3,0
STARLINK-37496,2026-119B,2026-07-06T14:00:03.000384,15.33438935,.00011507,97.2855,213.4927,122.5689,292.8519,0,U,69297,999,602,.60857372E-3,.19619E-3,0
STARLINK-37519,2026-119C,2026-07-06T01:02:07.016928,15.33389987,.0000719,97.2848,212.8279,76.7045,283.4278,0,U,69298,999,694,.30568E-3,.9789E-4,0
STARLINK-37455,2026-119D,2026-07-06T14:00:03.000384,15.33440229,.00014575,97.2854,213.3527,98.9053,346.5118,0,U,69299,999,603,.61308873E-3,.19767E-3,0
STARLINK-37456,2026-119E,2026-07-06T00:58:12.218880,15.33393816,.0001217,97.2846,212.8316,87.4869,272.6513,0,U,69300,999,694,.59936E-3,.19293E-3,0
STARLINK-37630,2026-119F,2026-07-06T14:00:03.000384,15.37075390,.00014572,97.2854,213.3633,92.0126,28.1063,0,U,69301,999,603,-.67650688E-2,-.237742E-2,0
STARLINK-37804,2026-119G,2026-07-06T11:48:09.011808,15.33407709,.00018358,97.2852,213.2862,121.2691,238.8732,0,U,69302,999,701,.1106309E-2,.35769E-3,0
STARLINK-37730,2026-119H,2026-07-06T11:44:12.109056,15.33542327,.00007268,97.2853,213.2924,47.3875,312.7429,0,U,69303,999,701,.78973153E-3,.25585E-3,0
STARLINK-37731,2026-119J,2026-07-06T14:00:03.000384,15.35617528,.00017515,97.2856,213.3884,81.3961,93.0030,0,U,69304,999,603,-.98382063E-1,-.2997592E-1,0
STARLINK-37734,2026-119K,2026-07-06T00:38:37.489056,15.33397770,.0001997,97.2847,212.8489,107.3220,252.8242,0,U,69305,999,694,.62572E-3,.2015E-3,0
STARLINK-37701,2026-119L,2026-07-06T00:34:42.492288,15.33403544,.0001873,97.2844,212.8530,104.8791,255.2659,0,U,69306,999,694,.63561E-3,.20474E-3,0
STARLINK-37732,2026-119M,2026-07-06T00:30:47.487744,15.33401757,.0001336,97.2844,212.8576,110.1459,249.9928,0,U,69307,999,694,.62603E-3,.20162E-3,0
STARLINK-37689,2026-119N,2026-07-06T14:00:03.000384,15.36962762,.00015362,97.2855,213.4073,97.0300,119.7056,0,U,69308,999,603,.70474903E-3,.25451E-3,0
STARLINK-37619,2026-119P,2026-07-06T01:56:55.977216,15.33402804,.0001278,97.2840,212.9282,88.5015,271.6374,0,U,69309,999,695,.65054E-3,.20957E-3,0
STARLINK-37794,2026-119Q,2026-07-06T00:19:02.723808,15.33405293,.0000964,97.2851,212.8680,96.0674,264.0678,0,U,69310,999,694,.69084E-3,.22266E-3,0
STARLINK-37795,2026-119R,2026-07-06T14:00:03.000384,15.36957116,.00010136,97.2855,213.4206,86.8457,164.2645,0,U,69311,999,604,.81947152E-3,.29617E-3,0
STARLINK-37790,2026-119S,2026-07-06T01:45:11.121696,15.33395842,.0001681,97.2844,212.9391,103.7596,256.3834,0,U,69312,999,695,.72443E-3,.23349E-3,0
STARLINK-37676,2026-119T,2026-07-06T01:41:16.226880,15.33396951,.0001389,97.2844,212.9439,82.4549,277.6851,0,U,69313,999,695,.79781E-3,.2573E-3,0
STARLINK-37617,2026-119U,2026-07-06T01:37:21.391680,15.33401674,.0002184,97.2845,212.9456,100.9250,259.2238,0,U,69314,999,695,.63592E-3,.20483E-3,0
STARLINK-37627,2026-119V,2026-07-06T01:33:26.140896,15.33412415,.0001511,97.2850,212.9500,101.0618,259.0795,0,U,69315,999,695,.27638E-4,.816E-5,0
STARLINK-37738,2026-119W,2026-07-06T01:29:31.374816,15.33399286,.0001126,97.2847,212.9541,91.4311,268.7060,0,U,69316,999,695,.76229E-3,.24579E-3,0
STARLINK-37799,2026-119X,2026-07-06T01:25:36.619104,15.33395168,.0001676,97.2842,212.9574,86.1523,273.9911,0,U,69317,999,570,.57859E-3,.18621E-3,0
STARLINK-37802,2026-119Y,2026-07-06T01:21:41.746752,15.33415991,.0000631,97.2844,212.9632,132.9567,227.1729,0,U,69318,999,695,.82599E-3,.26661E-3,0
STARLINK-37803,2026-119Z,2026-07-06T07:34:08.425920,15.36679982,.00014365,97.2879,213.2218,147.4614,212.6719,0,U,69319,999,574,-.38826656E-2,-.136535E-2,0
STARLINK-37733,2026-122A,2026-07-06T01:58:26.868288,15.33387263,.0001185,97.2847,216.7213,80.5378,279.5999,0,U,69329,999,508,.38321E-3,.12294E-3,0
STARLINK-37772,2026-122B,2026-07-06T01:54:31.944096,15.33401436,.0001024,97.2845,216.7256,78.5086,281.6272,0,U,69330,999,508,.50489E-3,.16237E-3,0
STARLINK-37768,2026-122C,2026-07-06T14:00:03.000384,15.33434111,.00013936,97.2856,217.2275,89.3619,185.2549,0,U,69331,999,607,.10394793E-2,.33622E-3,0
STARLINK-37833,2026-122D,2026-07-06T01:46:42.305664,15.33427351,.0000862,97.2845,216.7327,101.7564,258.3776,0,U,69332,999,508,.4086E-3,.13132E-3,0
